[{"COMMENT":"GENERATED VIA SPACETRACK.ORG API","ORIGINATOR":"18 SPCS","NORAD_CAT_ID":"43476","OBJECT_NAME":"GRACE-FO 1","OBJECT_TYPE":"PAYLOAD","CLASSIFICATION_TYPE":"U","INTLDES":"18047A","EPOCH":"2023-11-23 13:20:11","EPOCH_MICROSECONDS":"997024","MEAN_MOTION":"15.27389693","ECCENTRICITY":"0.0015643","INCLINATION":"88.9812","RA_OF_ASC_NODE":"327.4873","ARG_OF_PERICENTER":"135.0081","MEAN_ANOMALY":"225.2439","EPHEMERIS_TYPE":"0","ELEMENT_SET_NO":"999","REV_AT_EPOCH":"30631","BSTAR":"0.00018701","MEAN_MOTION_DOT":"0.00005057","MEAN_MOTION_DDOT":"0","FILE":"4103560","TLE_LINE0":"0 GRACE-FO 1","TLE_LINE1":"1 43476U 18047A   23327.55569441  .00005057  00000-0  18701-3 0  9997","TLE_LINE2":"2 43476  88.9812 327.4873 0015643 135.0081 225.2439 15.27389693306316","OBJECT_ID":"2018-047A","OBJECT_NUMBER":"43476","SEMIMAJOR_AXIS":"6861.756","PERIOD":"94.278","APOGEE":"494.355","PERIGEE":"472.887","DECAYED":"0"},{"COMMENT":"GENERATED VIA SPACETRACK.ORG API","ORIGINATOR":"18 SPCS","NORAD_CAT_ID":"43476","OBJECT_NAME":"GRACE-FO 1","OBJECT_TYPE":"PAYLOAD","CLASSIFICATION_TYPE":"U","INTLDES":"18047A","EPOCH":"2023-11-23 22:46:16","EPOCH_MICROSECONDS":"28832","MEAN_MOTION":"15.27393079","ECCENTRICITY":"0.001568","INCLINATION":"88.9811","RA_OF_ASC_NODE":"327.4334","ARG_OF_PERICENTER":"133.6436","MEAN_ANOMALY":"226.6117","EPHEMERIS_TYPE":"0","ELEMENT_SET_NO":"999","REV_AT_EPOCH":"30637","BSTAR":"0.00017469","MEAN_MOTION_DOT":"0.00004727","MEAN_MOTION_DDOT":"0","FILE":"4104120","TLE_LINE0":"0 GRACE-FO 1","TLE_LINE1":"1 43476U 18047A   23327.94879663  .00004727  00000-0  17469-3 0  9993","TLE_LINE2":"2 43476  88.9811 327.4334 0015680 133.6436 226.6117 15.27393079306373","OBJECT_ID":"2018-047A","OBJECT_NUMBER":"43476","SEMIMAJOR_AXIS":"6861.746","PERIOD":"94.278","APOGEE":"494.370","PERIGEE":"472.852","DECAYED":"0"},{"COMMENT":"GENERATED VIA SPACETRACK.ORG API","ORIGINATOR":"18 SPCS","NORAD_CAT_ID":"43476","OBJECT_NAME":"GRACE-FO 1","OBJECT_TYPE":"PAYLOAD","CLASSIFICATION_TYPE":"U","INTLDES":"18047A","EPOCH":"2023-11-24 12:55:21","EPOCH_MICROSECONDS":"923616","MEAN_MOTION":"15.27399397","ECCENTRICITY":"0.0015767","INCLINATION":"88.9809","RA_OF_ASC_NODE":"327.3525","ARG_OF_PERICENTER":"131.7148","MEAN_ANOMALY":"228.5453","EPHEMERIS_TYPE":"0","ELEMENT_SET_NO":"999","REV_AT_EPOCH":"30646","BSTAR":"0.00018238","MEAN_MOTION_DOT":"0.00004934","MEAN_MOTION_DDOT":"0","FILE":"4105170","TLE_LINE0":"0 GRACE-FO 1","TLE_LINE1":"1 43476U 18047A   23328.53844819  .00004934  00000-0  18238-3 0  9999","TLE_LINE2":"2 43476  88.9809 327.3525 0015767 131.7148 228.5453 15.27399397306469","OBJECT_ID":"2018-047A","OBJECT_NUMBER":"43476","SEMIMAJOR_AXIS":"6861.727","PERIOD":"94.278","APOGEE":"494.411","PERIGEE":"472.773","DECAYED":"0"},{"COMMENT":"GENERATED VIA SPACETRACK.ORG API","ORIGINATOR":"18 SPCS","NORAD_CAT_ID":"43476","OBJECT_NAME":"GRACE-FO 1","OBJECT_TYPE":"PAYLOAD","CLASSIFICATION_TYPE":"U","INTLDES":"18047A","EPOCH":"2023-11-24 20:47:05","EPOCH_MICROSECONDS":"114688","MEAN_MOTION":"15.27402674","ECCENTRICITY":"0.0015809","INCLINATION":"88.9807","RA_OF_ASC_NODE":"327.3076","ARG_OF_PERICENTER":"130.6074","MEAN_ANOMALY":"229.6553","EPHEMERIS_TYPE":"0","ELEMENT_SET_NO":"999","REV_AT_EPOCH":"30651","BSTAR":"0.00018313","MEAN_MOTION_DOT":"0.00004955","MEAN_MOTION_DDOT":"0","FILE":"4105440","TLE_LINE0":"0 GRACE-FO 1","TLE_LINE1":"1 43476U 18047A   23328.86603142  .00004955  00000-0  18313-3 0  9994","TLE_LINE2":"2 43476  88.9807 327.3076 0015809 130.6074 229.6553 15.27402674306513","OBJECT_ID":"2018-047A","OBJECT_NUMBER":"43476","SEMIMAJOR_AXIS":"6861.717","PERIOD":"94.278","APOGEE":"494.430","PERIGEE":"472.734","DECAYED":"0"},{"COMMENT":"GENERATED VIA SPACETRACK.ORG API","ORIGINATOR":"18 SPCS","NORAD_CAT_ID":"43476","OBJECT_NAME":"GRACE-FO 1","OBJECT_TYPE":"PAYLOAD","CLASSIFICATION_TYPE":"U","INTLDES":"18047A","EPOCH":"2023-11-24 22:21:25","EPOCH_MICROSECONDS":"732512","MEAN_MOTION":"15.27403517","ECCENTRICITY":"0.0015817","INCLINATION":"88.9807","RA_OF_ASC_NODE":"327.2986","ARG_OF_PERICENTER":"130.3868","MEAN_ANOMALY":"229.8765","EPHEMERIS_TYPE":"0","ELEMENT_SET_NO":"999","REV_AT_EPOCH":"30652","BSTAR":"0.00018273","MEAN_MOTION_DOT":"0.00004945","MEAN_MOTION_DDOT":"0","FILE":"4105877","TLE_LINE0":"0 GRACE-FO 1","TLE_LINE1":"1 43476U 18047A   23328.93154783  .00004945  00000-0  18273-3 0  9998","TLE_LINE2":"2 43476  88.9807 327.2986 0015817 130.3868 229.8765 15.27403517306524","OBJECT_ID":"2018-047A","OBJECT_NUMBER":"43476","SEMIMAJOR_AXIS":"6861.715","PERIOD":"94.278","APOGEE":"494.433","PERIGEE":"472.726","DECAYED":"0"},{"COMMENT":"GENERATED VIA SPACETRACK.ORG API","ORIGINATOR":"18 SPCS","NORAD_CAT_ID":"43476","OBJECT_NAME":"GRACE-FO 1","OBJECT_TYPE":"PAYLOAD","CLASSIFICATION_TYPE":"U","INTLDES":"18047A","EPOCH":"2023-11-25 14:04:51","EPOCH_MICROSECONDS":"852864","MEAN_MOTION":"15.27412142","ECCENTRICITY":"0.001591","INCLINATION":"88.9806","RA_OF_ASC_NODE":"327.2086","ARG_OF_PERICENTER":"128.2821","MEAN_ANOMALY":"231.9862","EPHEMERIS_TYPE":"0","ELEMENT_SET_NO":"999","REV_AT_EPOCH":"30662","BSTAR":"0.00020846","MEAN_MOTION_DOT":"0.00005638","MEAN_MOTION_DDOT":"0","FILE":"4106483","TLE_LINE0":"0 GRACE-FO 1","TLE_LINE1":"1 43476U 18047A   23329.58671126  .00005638  00000-0  20846-3 0  9994","TLE_LINE2":"2 43476  88.9806 327.2086 0015910 128.2821 231.9862 15.27412142306620","OBJECT_ID":"2018-047A","OBJECT_NUMBER":"43476","SEMIMAJOR_AXIS":"6861.689","PERIOD":"94.277","APOGEE":"494.471","PERIGEE":"472.637","DECAYED":"0"},{"COMMENT":"GENERATED VIA SPACETRACK.ORG API","ORIGINATOR":"18 SPCS","NORAD_CAT_ID":"43476","OBJECT_NAME":"GRACE-FO 1","OBJECT_TYPE":"PAYLOAD","CLASSIFICATION_TYPE":"U","INTLDES":"18047A","EPOCH":"2023-11-25 21:56:34","EPOCH_MICROSECONDS":"746720","MEAN_MOTION":"15.27419262","ECCENTRICITY":"0.0015957","INCLINATION":"88.9806","RA_OF_ASC_NODE":"327.1637","ARG_OF_PERICENTER":"127.1928","MEAN_ANOMALY":"233.0781","EPHEMERIS_TYPE":"0","ELEMENT_SET_NO":"999","REV_AT_EPOCH":"30667","BSTAR":"0.00026722","MEAN_MOTION_DOT":"0.00007221","MEAN_MOTION_DDOT":"0","FILE":"4106487","TLE_LINE0":"0 GRACE-FO 1","TLE_LINE1":"1 43476U 18047A   23329.91429105  .00007221  00000-0  26722-3 0  9998","TLE_LINE2":"2 43476  88.9806 327.1637 0015957 127.1928 233.0781 15.27419262306676","OBJECT_ID":"2018-047A","OBJECT_NUMBER":"43476","SEMIMAJOR_AXIS":"6861.667","PERIOD":"94.277","APOGEE":"494.482","PERIGEE":"472.583","DECAYED":"0"},{"COMMENT":"GENERATED VIA SPACETRACK.ORG API","ORIGINATOR":"18 SPCS","NORAD_CAT_ID":"43476","OBJECT_NAME":"GRACE-FO 1","OBJECT_TYPE":"PAYLOAD","CLASSIFICATION_TYPE":"U","INTLDES":"18047A","EPOCH":"2023-11-26 02:39:36","EPOCH_MICROSECONDS":"445536","MEAN_MOTION":"15.27422019","ECCENTRICITY":"0.0015982","INCLINATION":"88.9805","RA_OF_ASC_NODE":"327.1367","ARG_OF_PERICENTER":"126.5562","MEAN_ANOMALY":"233.7162","EPHEMERIS_TYPE":"0","ELEMENT_SET_NO":"999","REV_AT_EPOCH":"30670","BSTAR":"0.0002702","MEAN_MOTION_DOT":"0.00007302","MEAN_MOTION_DDOT":"0","FILE":"4106527","TLE_LINE0":"0 GRACE-FO 1","TLE_LINE1":"1 43476U 18047A   23330.11083849  .00007302  00000-0  27020-3 0  9995","TLE_LINE2":"2 43476  88.9805 327.1367 0015982 126.5562 233.7162 15.27422019306708","OBJECT_ID":"2018-047A","OBJECT_NUMBER":"43476","SEMIMAJOR_AXIS":"6861.659","PERIOD":"94.276","APOGEE":"494.490","PERIGEE":"472.558","DECAYED":"0"},{"COMMENT":"GENERATED VIA SPACETRACK.ORG API","ORIGINATOR":"18 SPCS","NORAD_CAT_ID":"43476","OBJECT_NAME":"GRACE-FO 1","OBJECT_TYPE":"PAYLOAD","CLASSIFICATION_TYPE":"U","INTLDES":"18047A","EPOCH":"2023-11-26 13:40:00","EPOCH_MICROSECONDS":"478272","MEAN_MOTION":"15.27422224","ECCENTRICITY":"0.0016045","INCLINATION":"88.9805","RA_OF_ASC_NODE":"327.0737","ARG_OF_PERICENTER":"125.0773","MEAN_ANOMALY":"235.1984","EPHEMERIS_TYPE":"0","ELEMENT_SET_NO":"999","REV_AT_EPOCH":"30677","BSTAR":"0.00018874","MEAN_MOTION_DOT":"0.0000511","MEAN_MOTION_DDOT":"0","FILE":"4107973","TLE_LINE0":"0 GRACE-FO 1","TLE_LINE1":"1 43476U 18047A   23330.56944998  .00005110  00000-0  18874-3 0  9997","TLE_LINE2":"2 43476  88.9805 327.0737 0016045 125.0773 235.1984 15.27422224306770","OBJECT_ID":"2018-047A","OBJECT_NUMBER":"43476","SEMIMAJOR_AXIS":"6861.659","PERIOD":"94.276","APOGEE":"494.533","PERIGEE":"472.514","DECAYED":"0"},{"COMMENT":"GENERATED VIA SPACETRACK.ORG API","ORIGINATOR":"18 SPCS","NORAD_CAT_ID":"43476","OBJECT_NAME":"GRACE-FO 1","OBJECT_TYPE":"PAYLOAD","CLASSIFICATION_TYPE":"U","INTLDES":"18047A","EPOCH":"2023-11-26 21:31:43","EPOCH_MICROSECONDS":"220064","MEAN_MOTION":"15.27425192","ECCENTRICITY":"0.0016084","INCLINATION":"88.9806","RA_OF_ASC_NODE":"327.0288","ARG_OF_PERICENTER":"124.0084","MEAN_ANOMALY":"236.2696","EPHEMERIS_TYPE":"0","ELEMENT_SET_NO":"999","REV_AT_EPOCH":"30682","BSTAR":"0.00017476","MEAN_MOTION_DOT":"0.00004734","MEAN_MOTION_DDOT":"0","FILE":"4108592","TLE_LINE0":"0 GRACE-FO 1","TLE_LINE1":"1 43476U 18047A   23330.89702801  .00004734  00000-0  17476-3 0  9996","TLE_LINE2":"2 43476  88.9806 327.0288 0016084 124.0084 236.2696 15.27425192306824","OBJECT_ID":"2018-047A","OBJECT_NUMBER":"43476","SEMIMAJOR_AXIS":"6861.650","PERIOD":"94.276","APOGEE":"494.551","PERIGEE":"472.478","DECAYED":"0"}]